ONEWEB-0607             
1 54671U 22166AF  25341.84148018 -.00000052  00000+0 -15623-3 0  9997
2 54671  87.9214 282.1322 0001897  82.9342 277.2008 13.21825383146260
ONEWEB-0608             
1 54672U 22166AG  25341.84805168  .00000047  00000+0  83246-4 0  9993
2 54672  87.9220 282.1181 0001713  96.7650 263.3679 13.21823900146277
ONEWEB-0610             
1 54673U 22166AH  25341.82830301  .00000032  00000+0  46720-4 0  9999
2 54673  87.9213 282.1553 0001784  98.0517 262.0820 13.21824363146175
ONEWEB-0611             
1 54674U 22166AJ  25341.82173809 -.00000085  00000+0 -23826-3 0  9994
2 54674  87.9213 282.1524 0001875  71.5961 288.5377 13.21825925146168
ONEWEB-0612             
1 54675U 22166AK  25341.83489178 -.00000038  00000+0 -12349-3 0  9991
2 54675  87.9216 282.1290 0001804  82.8532 277.2807 13.21824379146157
ONEWEB-0615             
1 54676U 22166AL  25341.89085333 -.00000033  00000+0 -11076-3 0  9994
2 54676  87.9215 282.1448 0001811  78.3975 281.7362 13.21825523146171
ONEWEB-0655             
1 54677U 22166AM  25341.86617270  .00000022  00000+0  22311-4 0  9994
2 54677  87.9212 282.1540 0002067  82.8504 277.2864 13.21825300146163
ONEWEB-0659             
1 54678U 22166AN  25341.88262267 -.00000020  00000+0 -80778-4 0  9990
2 54678  87.9213 282.1509 0001765  75.3526 284.7804 13.21825134146257
